[{"OBJECT_NAME":"PUJIANG 2 (PJ-2)","OBJECT_ID":"2022-031B","EPOCH":"2026-03-09T23:59:30.994656","MEAN_MOTION":14.94193409,"ECCENTRICITY":0.00120718,"INCLINATION":97.86,"RA_OF_ASC_NODE":254.4415,"ARG_OF_PERICENTER":164.7982,"MEAN_ANOMALY":195.3603,"EPHEMERIS_TYPE":0,"CLASSIFICATION_TYPE":"U","NORAD_CAT_ID":52151,"ELEMENT_SET_NO":999,"REV_AT_EPOCH":21498,"BSTAR":0.00020001428,"MEAN_MOTION_DOT":2.087e-5,"MEAN_MOTION_DDOT":0},{"OBJECT_NAME":"STARLINK-34461","OBJECT_ID":"2025-129G","EPOCH":"2026-03-09T10:16:06.900096","MEAN_MOTION":14.98331937,"ECCENTRICITY":0.0003089,"INCLINATION":70.0007,"RA_OF_ASC_NODE":75.294,"ARG_OF_PERICENTER":266.5562,"MEAN_ANOMALY":93.5244,"EPHEMERIS_TYPE":0,"CLASSIFICATION_TYPE":"U","NORAD_CAT_ID":64418,"ELEMENT_SET_NO":999,"REV_AT_EPOCH":4124,"BSTAR":-5.079014e-5,"MEAN_MOTION_DOT":-6.99e-6,"MEAN_MOTION_DDOT":0}]
